IRIDIUM 166             
1 43570U 18061B   25350.36197399  .00000200  00000+0  64206-4 0  9990
2 43570  86.3977 133.1917 0002144  91.8725 268.2717 14.34216967387193
IRIDIUM 158             
1 43571U 18061C   25350.33025827  .00000222  00000+0  72146-4 0  9990
2 43571  86.3976 133.2150 0001851  98.4807 261.6598 14.34215218387159
IRIDIUM 165             
1 43572U 18061D   25350.35563058  .00000004  00000+0 -56455-5 0  9991
2 43572  86.3980 133.2472 0001960  91.4767 268.6653 14.34216667387182
IRIDIUM 155             
1 43573U 18061E   25350.31757574 -.00000028  00000+0 -16975-4 0  9995
2 43573  86.3976 133.1413 0001965  99.2775 260.8643 14.34216991387141
IRIDIUM 154             
1 43574U 18061F   25350.29854804  .00000156  00000+0  48770-4 0  9995
2 43574  86.3979 133.2736 0002046  92.2454 267.8976 14.34216576387192
IRIDIUM 163             
1 43575U 18061G   25350.34928742  .00000137  00000+0  41821-4 0  9994
2 43575  86.3976 133.1736 0001841  94.7152 265.4254 14.34216288387174
IRIDIUM 156             
1 43576U 18061H   25350.32391631  .00000172  00000+0  54271-4 0  9996
2 43576  86.3975 133.1912 0002105  99.4282 260.7152 14.34215482387169
IRIDIUM 164             
1 43577U 18061J   25350.30488697 -.00000489  00000+0 -18162-3 0  9995
2 43577  86.3986 133.2366 0002063  88.8563 271.2870 14.34213063387205
